LYNK TOWER 4            
1 55034U 23001AB  26068.67743801  .00009160  00000+0  30014-3 0  9997
2 55034  97.3324 128.5940 0010321 112.3386 247.8950 15.31819885176588
STARLINK-35226          
1 65492U 25198A   26068.81665882  .00016855  00000+0  57996-3 0  9990
2 65492  53.1595 270.1174 0001028  77.2929 282.8187 15.30197756 28645
