[{"OBJECT_NAME":"LYNK TOWER 4","OBJECT_ID":"2023-001AB","EPOCH":"2026-03-09T16:15:30.644928","MEAN_MOTION":15.31819885,"ECCENTRICITY":0.00103213,"INCLINATION":97.3324,"RA_OF_ASC_NODE":128.594,"ARG_OF_PERICENTER":112.3386,"MEAN_ANOMALY":247.895,"EPHEMERIS_TYPE":0,"CLASSIFICATION_TYPE":"U","NORAD_CAT_ID":55034,"ELEMENT_SET_NO":999,"REV_AT_EPOCH":17658,"BSTAR":0.00030013829,"MEAN_MOTION_DOT":9.16e-5,"MEAN_MOTION_DDOT":0},{"OBJECT_NAME":"STARLINK-35226","OBJECT_ID":"2025-198A","EPOCH":"2026-03-09T19:35:59.322912","MEAN_MOTION":15.30197756,"ECCENTRICITY":0.00010279,"INCLINATION":53.1595,"RA_OF_ASC_NODE":270.1174,"ARG_OF_PERICENTER":77.2929,"MEAN_ANOMALY":282.8187,"EPHEMERIS_TYPE":0,"CLASSIFICATION_TYPE":"U","NORAD_CAT_ID":65492,"ELEMENT_SET_NO":999,"REV_AT_EPOCH":2864,"BSTAR":0.00057996317,"MEAN_MOTION_DOT":0.00016855,"MEAN_MOTION_DDOT":0}]
